{{Infobox planet
|width           = 25em
|background      = #FFFFC0 | name=小行星635
 | discoverer=K. Lohnert
 | discovered=1907年6月9日
 | alt_names= 1907 ZS
 | named_after = [[威廉·冯特|威廉·冯特]]
 | mp_category=[[小行星带|主带小行星]]
 | epoch=2011年8月27日 ([[儒略日|JD]] 2453400.5)
 | eccentricity=.07693192990865905
 | semimajor=3.14305636898716AU
 | perihelion=2.901254976709276AU
 | inclination=11.02888982730755°
 | asc_node=183.0925398611097°
 | arg_peri=222.9936279907711°
 | mean_anomaly=123.35629343002[[角度|°]]
 | period=2035.291794747556[[日|日]]<br/>5.57[[儒略年|儒略年]]
 | aphelion=3.384857761265045[[天文单位|AU]]		
 | avg_speed=未知
 | abs_magnitude=9.01
 | dimensions=98.24千米	
 | rotation=15.650小时
 | albedo=0.0456
 | mass=未知
 | density=未知
 | surface_grav=未知
 | escape_velocity=未知
 | spectral_type=[[C-型小行星|C型]]
 | single_temperature=未知}}

'''小行星635'''（[[英语|英语]]：'''635 Vundtia'''）是一颗[[C-型小行星|C型]][[小行星带|主带小行星]]，于1907年6月9日由[[德国|德国]][[天文学家|天文学家]]K. Lohnert在[[海德堡|海德堡]]发现<ref>[http://ssd.jpl.nasa.gov/sbdb.cgi?sstr=635%20Vundtia;orb=1;cov=0;log=0;cad=0#orb JPL Small-Body Database Browser]</ref>。

小行星635以[[德国|德国]][[心理学家|心理学家]][[威廉·冯特|威廉·冯特]]命名。

==参考资料==
{{reflist}}

{{Minor Planet Number|[[小行星634|634 Ute]]|[[小行星636|636 Erika]]}}
{{Beltasteroid-stub}}
[[Category:小行星带天体|Category:小行星带天体]]
[[Category:1907年发现的小行星|Category:1907年发现的小行星]]
[[Category:以人名命名的小行星|Category:以人名命名的小行星]]
[[Category:C-型小行星|Category:C-型小行星]]